STARLINK-3264           
1 50198U 21125AU  26068.67788857  .00000403  00000+0  43412-4 0  9996
2 50198  53.2170 239.1737 0001201 106.1707 253.9418 15.08838828236735
STARLINK-5895           
1 55964U 23037BC  26068.93316413  .00010921  00000+0  72850-3 0  9993
2 55964  69.9972 260.0280 0004986 264.4993  95.5602 15.07243555164606
