[{"OBJECT_NAME":"STARLINK-3264","OBJECT_ID":"2021-125AU","EPOCH":"2026-03-09T16:16:09.572448","MEAN_MOTION":15.08838828,"ECCENTRICITY":0.00012016,"INCLINATION":53.217,"RA_OF_ASC_NODE":239.1737,"ARG_OF_PERICENTER":106.1707,"MEAN_ANOMALY":253.9418,"EPHEMERIS_TYPE":0,"CLASSIFICATION_TYPE":"U","NORAD_CAT_ID":50198,"ELEMENT_SET_NO":999,"REV_AT_EPOCH":23673,"BSTAR":4.3412221e-5,"MEAN_MOTION_DOT":4.03e-6,"MEAN_MOTION_DDOT":0},{"OBJECT_NAME":"STARLINK-5895","OBJECT_ID":"2023-037BC","EPOCH":"2026-03-09T22:23:45.381696","MEAN_MOTION":15.07243555,"ECCENTRICITY":0.00049855,"INCLINATION":69.9972,"RA_OF_ASC_NODE":260.028,"ARG_OF_PERICENTER":264.4993,"MEAN_ANOMALY":95.5602,"EPHEMERIS_TYPE":0,"CLASSIFICATION_TYPE":"U","NORAD_CAT_ID":55964,"ELEMENT_SET_NO":999,"REV_AT_EPOCH":16460,"BSTAR":0.00072849946,"MEAN_MOTION_DOT":0.00010921,"MEAN_MOTION_DDOT":0}]
